0 THORAD AGENA D DEB
1 05691U 70025LW  13282.82135719  .00000906  00000-0  70617-3 0   728
2 05691 099.2284 334.5083 0033621 077.8155 336.2016 13.94720647181623
0 THORAD AGENA D DEB
1 05691U 70025LW  13286.12138454  .00001180  00000-0  91024-3 0   746
2 05691 099.2278 337.8073 0033399 068.8458 345.6427 13.94725436182081
0 THORAD AGENA D DEB
1 05691U 70025LW  13287.64688804  .00001544  00000-0  11802-2 0   753
2 05691 099.2275 339.3323 0033336 064.6904 085.2309 13.94729193182297
0 THORAD AGENA D DEB
1 05691U 70025LW  13289.12757123  .00001665  00000-0  12704-2 0   766
2 05691 099.2272 340.8125 0033230 060.5673 319.8890 13.94734773182507
0 THORAD AGENA D DEB
1 05691U 70025LW  13291.73146591  .00001620  00000-0  12366-2 0   773
2 05691 099.2268 343.4152 0033121 053.4985 074.1749 13.94741915182866
0 THORAD AGENA D DEB
1 05691U 70025LW  13293.08155907  .00001716  00000-0  13078-2 0   782
2 05691 099.2268 344.7647 0032987 049.6947 013.2389 13.94747673183056
0 THORAD AGENA D DEB
1 05691U 70025LW  13294.37220028  .00001603  00000-0  12239-2 0   796
2 05691 099.2270 346.0546 0032887 046.0888 013.7686 13.94753608183236
0 THORAD AGENA D DEB
1 05691U 70025LW  13296.09497973  .00001583  00000-0  12091-2 0   807
2 05691 099.2267 347.7763 0032738 041.2170 024.2345 13.94760745183472
